GHOST-2                 
1 56197U 23054V   24363.28349348  .00040116  00000+0  83099-3 0  9994
2 56197  97.3424 259.8075 0006764 161.2451 198.9049 15.45627679 95880
TOMORROW-R1             
1 56199U 23054X   24363.47779184  .00096392  00000+0  12602-2 0  9990
2 56199  97.3451 263.0901 0005843 144.0295 216.1355 15.58296944 96109
FACSAT-2                
1 56205U 23054AD  24363.55558780  .00044183  00000+0  79560-3 0  9992
2 56205  97.3473 262.4076 0008589 151.0967 209.0761 15.49645245 96059
CONNECTA T2.1           
1 56210U 23054AJ  24363.53923104  .00042445  00000+0  80359-3 0  9999
2 56210  97.3396 261.0341 0008172 148.2207 211.9538 15.48220520 96005
DISCO-1                 
1 56222U 23054AW  24363.24325308  .00349263  00000+0  16306-2 0  9990
2 56222  97.3300 265.4614 0007508 114.5792 245.6260 15.82355582 96259
REVELA                  
1 56224U 23054AY  24363.26580371  .02000644  43352-2  15712-2 0  9996
2 56224  97.3265 268.3173 0007128 123.1200 237.0771 16.15783237 96432
TELEOS-2                
1 56310U 23057C   24362.81323921  .00015883  00000+0  13000-2 0  9998
2 56310   9.9871 149.6301 0001101 276.5320  83.4769 14.96464160 92327
SNIPE 4                 
1 56744U 23072B   24363.58332577  .00022263  00000+0  99725-3 0  9997
2 56744  97.5406 189.4872 0011367  75.0534 285.1959 15.21206304 88144
SNIPE 2                 
1 56745U 23072C   24363.55434535  .00025906  00000+0  11433-2 0  9998
2 56745  97.5575 190.2892 0007829  90.0674 270.1458 15.21714656 88157
2023-072G               
1 56749U 23072G   24363.56696213  .00025060  00000+0  10343-2 0  9996
2 56749  97.5211 189.2637 0008080  95.1530 265.0630 15.23995750 88221
OTTER PUP               
1 56933U 23084B   24363.31408813  .00035392  00000+0  10533-2 0  9994
2 56933  97.5514 124.9151 0005570  32.6349 327.5237 15.34621183 85811
GEISAT PRECURSOR        
1 56934U 23084C   24363.55469673  .00012009  00000+0  49230-3 0  9999
2 56934  97.5589 122.3650 0008579  78.8758 281.3443 15.24386445 85643
EIVE                    
1 56937U 23084F   24363.49953865  .00106870  00000+0  18412-2 0  9993
2 56937  97.5454 127.6121 0002559  36.9381 323.2046 15.50676808 86007
LAYAN-23                
1 56939U 23084H   24363.59195756  .00044875  00000+0  74890-3 0  9992
2 56939  97.5423 128.7166 0002404  62.6138 297.5358 15.51831925 86082
AFRL-XVI                
1 56942U 23084L   24363.31318508  .00038125  00000+0  85394-3 0  9990
2 56942  97.5531 127.7037 0003992  65.3407 294.8256 15.43342576 85978
BLACKJACK ACES-3        
1 56950U 23084U   24363.59354764  .00020499  00000+0  82595-3 0  9998
2 56950  97.5585 124.1397 0008828  52.3703 307.8334 15.24842292 85762
BLACKJACK ACES-4        
1 56952U 23084W   24363.60061010  .00045320  00000+0  12605-2 0  9995
2 56952  97.5564 125.5925 0007626  47.4373 312.7513 15.36676202 85860
BLACKJACK ACES-2        
1 56955U 23084Z   24363.31234368  .00027563  00000+0  11051-2 0  9997
2 56955  97.5574 123.8372 0008952  56.4132 303.7958 15.24945031 85721
BLACKJACK ACES-1        
1 56956U 23084AA  24363.61540555  .00027183  00000+0  10891-2 0  9998
2 56956  97.5548 124.1134 0009201  56.2664 303.9449 15.24968846 35494
ION SCV-011             
1 56957U 23084AB  24363.32587194  .00012932  00000+0  59843-3 0  9994
2 56957  98.0863 134.6493 0009650  92.4207 267.8131 15.20245964 84145
GHOST-3                 
1 56958U 23084AC  24363.30762518  .00020873  00000+0  77241-3 0  9993
2 56958  97.5586 123.1466 0010571  57.8486 302.3777 15.27655477 85674
TOMORROW-R2             
1 56962U 23084AG  24363.30415506  .00032363  00000+0  10177-2 0  9991
2 56962  97.5555 124.5892 0009608  52.0114 308.1994 15.32859777 85778
AFR-1                   
1 56964U 23084AJ  24363.60984182  .00009883  00000+0  44511-3 0  9998
2 56964  97.5626 121.6557 0013433  62.0985 298.1609 15.21191415 85590
DROID.001               
1 56965U 23084AK  24363.31541179  .00036716  00000+0  10958-2 0  9994
2 56965  97.5539 124.9119 0008651  44.7881 315.4058 15.34501940 85809
AII-DELTA               
1 56987U 23084BH  24363.62093216  .00351792  00000+0  21012-2 0  9993
2 56987  97.5228 132.4910 0006726 316.1739  43.8992 15.76882945 86353
SPEI SATELLES           
1 56991U 23084BT  24363.30232674  .00106515  00000+0  16499-2 0  9990
2 56991  97.5445 128.9703 0004711 356.6455   3.4766 15.53650828 86084
URESAT-1                
1 56992U 23084BU  24363.61465818  .00223058  00000+0  21957-2 0  9990
2 56992  97.5341 129.1895 0004683  10.0781 350.0571 15.65261538 86136
MRC-100                 
1 56993U 23084BV  24363.35714726  .01030429  49648-3  25364-2 0  9997
2 56993  97.5251 131.4130 0008612 318.9082  41.1544 15.96066483 86263
METEOR-M2 3             
1 57166U 23091A   24363.54683171  .00000116  00000+0  69835-4 0  9995
2 57166  98.6878  56.2202 0002967 291.4228  68.6634 14.23963860 78282
STRATOSAT-TK 1 (RS52S)  
1 57167U 23091B   24363.55703803  .00043427  00000+0  17210-2 0  9992
2 57167  97.5837  57.3887 0012158 160.7593 199.4106 15.25200134 83041
UMKA 1 (RS40S)          
1 57172U 23091G   24363.54256011  .00011406  00000+0  66470-3 0  9996
2 57172  97.5861  53.9041 0015602 170.9156 189.2359 15.12055415 82810
2023-091H               
1 57173U 23091H   24363.54289457  .00017363  00000+0  94397-3 0  9994
2 57173  97.5858  54.3587 0013354 178.2198 181.9083 15.14470856 82844
2023-091J               
1 57174U 23091J   24363.59625086  .00006812  00000+0  43768-3 0  9995
2 57174  97.5874  52.6578 0014691 183.1428 176.9711 15.08671152 82735
CUBEBEL 2 (EU11S)       
1 57175U 23091K   24363.57913957  .00017375  00000+0  94779-3 0  9995
2 57175  97.5857  54.3045 0013441 181.5995 178.5196 15.14351898 82844
SITRO-AIS 5 (KATYS)     
1 57176U 23091L   24363.54743130  .00017983  00000+0  96867-3 0  9992
2 57176  97.5866  54.5713 0015852 169.8860 190.2694 15.14761776 82852
ZORKIY-2M 1             
1 57177U 23091M   24363.58812477  .00010629  00000+0  61990-3 0  9997
2 57177  97.5884  54.1232 0016480 167.9852 192.1775 15.12032696 82821
CUBESX-HSE 3 (RS42S)    
1 57178U 23091N   24363.60561684  .00018547  00000+0  97937-3 0  9999
2 57178  97.5894  55.1513 0015593 163.1651 197.0101 15.15462924 82882
MONITOR-3 (RS58S)       
1 57180U 23091Q   24363.55193988  .00017259  00000+0  93848-3 0  9990
2 57180  97.5889  54.7169 0015970 164.6844 195.4874 15.14433523 82858
MONITOR-4 (RS57S)       
1 57182U 23091S   24363.55201305  .00016930  00000+0  92056-3 0  9990
2 57182  97.5883  54.6781 0016004 165.3912 194.7785 15.14437505 82853
MONITOR-2 (RS39S)       
1 57184U 23091U   24363.59491386  .00010300  00000+0  60942-3 0  9990
2 57184  97.5888  54.3569 0013666 159.8866 200.2905 15.11558615 82836
SVYATOBOR 1 (RS60S)     
1 57187U 23091X   24363.59238356  .00014923  00000+0  80706-3 0  9994
2 57187  97.5887  55.4422 0012798 155.0596 205.1256 15.14699685 82908
HORS 1                  
1 57188U 23091Y   24363.58954133  .00014881  00000+0  80520-3 0  9999
2 57188  97.5868  55.3121 0012222 155.2864 204.8956 15.14688582 82902
VIZARD-METEO (RS38S)    
1 57189U 23091Z   24363.54994198  .00020506  00000+0  10192-2 0  9999
2 57189  97.5881  56.3639 0011592 150.2716 209.9178 15.17621183 82968
NANOZOND 1 (RS49S)      
1 57190U 23091AA  24363.54535262  .00034701  00000+0  14220-2 0  9992
2 57190  97.5846  58.0222 0009296 150.1580 210.0188 15.24157379 83081
SITRO-AIS 6 (CHIRKIN)   
1 57192U 23091AC  24363.59388961  .00016771  00000+0  90349-3 0  9995
2 57192  97.5862  54.6483 0015731 169.5258 190.6305 15.14774233 82861
SITRO-AIS 8 (ANOKHIN)   
1 57193U 23091AD  24363.55883017  .00018331  00000+0  96444-3 0  9990
2 57193  97.5862  54.8361 0015268 170.2880 189.8651 15.15599971 82874
SITRO-AIS 7 (FARTUSHNIY)
1 57194U 23091AE  24363.60779016  .00017681  00000+0  95493-3 0  9990
2 57194  97.5863  54.6206 0015614 169.9307 190.2240 15.14673825 82865
AVION KALUGA 650        
1 57195U 23091AF  24363.60567787  .00011455  00000+0  66656-3 0  9993
2 57195  97.5902  54.7387 0012859 159.5768 200.5979 15.12139554 82852
HORS 2                  
1 57196U 23091AG  24363.59561579  .00017988  00000+0  92608-3 0  9998
2 57196  97.5883  56.0107 0011977 154.8224 205.3595 15.16410110 82942
A-SEANSAT-PG1           
1 57197U 23091AH  24363.58646338  .00021440  00000+0  10618-2 0  9993
2 57197  97.5859  56.1937 0011461 157.2030 202.9715 15.17738333 82968
YARILO 3                
1 57198U 23091AJ  24363.57368543  .00098407  00000+0  25029-2 0  9991
2 57198  97.5860  61.4441 0006913 147.0314 213.1363 15.39203275 83283
SITRO-AIS 10 (BURDAEV)  
1 57199U 23091AK  24363.59064913  .00021356  00000+0  10468-2 0  9998
2 57199  97.5871  56.4312 0011254 155.1372 205.0406 15.18102212 82974
SITRO-AIS 9 (SHCHUKIN)  
1 57201U 23091AM  24363.59402018  .00020928  00000+0  10282-2 0  9992
2 57201  97.5867  56.3914 0011204 155.2075 204.9699 15.18025190 82977
UTMN 2 (RS27S)          
1 57203U 23091AP  24363.50346357  .00019194  00000+0  98395-3 0  9993
2 57203  97.5880  55.9610 0011929 152.0597 208.1279 15.16545934 82937
SITRO-AIS 12 (SMIRENNIY)
1 57204U 23091AQ  24363.59747214  .00021230  00000+0  10373-2 0  9993
2 57204  97.5877  56.6067 0011250 149.3700 210.8192 15.18213892 82986
ARCCUBE 1 (RS25S)       
1 57205U 23091AR  24363.57746906  .00048801  00000+0  17803-2 0  9997
2 57205  97.5792  58.7068 0008742 150.4158 209.7577 15.27952690 83148
SITRO-AIS 11 (SHEFFER)  
1 57208U 23091AU  24363.56819837  .00022268  00000+0  10831-2 0  9996
2 57208  97.5877  56.6290 0011052 149.7211 210.4663 15.18364205 82983
H2SAT (HEINRICH HERTZ)  
1 57213U 23093A   24363.01501770  .00000117  00000+0  00000+0 0  9991
2 57213   0.0199  67.7848 0001664 292.2192 115.6168  1.00269603  5542
KUZGTU 1 (RS47S)        
1 57217U 23091AV  24363.57861518  .00018189  00000+0  97061-3 0  9998
2 57217  97.5864  54.8554 0015450 165.3341 194.8342 15.15097102 82879
